STARLINK-31247          
1 59206U 24046F   26068.53249558 -.00000991  00000+0 -21364-4 0  9991
2 59206  53.1583 156.2000 0001171  83.8857 276.2277 15.30182497113022
TEVEL2-5                
1 63214U 25052E   26068.96660006  .00021339  00000+0  71765-3 0  9991
2 63214  97.4013 325.3677 0004700  95.3936 264.7842 15.30817434 54919
